NORAD_CAT_ID,OBJECT_NAME,OBJECT_TYPE,EPOCH,MEAN_MOTION,ECCENTRICITY,INCLINATION,RA_OF_ASC_NODE,ARG_OF_PERICENTER,MEAN_ANOMALY,BSTAR,MEAN_MOTION_DOT,MEAN_MOTION_DDOT,TLE_LINE0,TLE_LINE1,TLE_LINE2,SEMIMAJOR_AXIS,PERIOD,APOGEE,PERIGEE,DECAYED
53750.0,STARLINK-4612,PAYLOAD,2024-01-09 22:24:47,15.0884042,0.0001357,53.2157,209.7193,87.2697,272.8451,0.00010797,1.431e-05,0.0,0 STARLINK-4612,1 53750U 22107BC  24009.93388337  .00001431  00000-0  10797-3 0  9997,2 53750  53.2157 209.7193 0001357  87.2697 272.8451 15.08840420 75374,6917.879,95.438,540.683,538.805,0.0
53750.0,STARLINK-4612,PAYLOAD,2024-01-10 20:40:11,15.08844859,0.0001465,53.2158,205.5578,80.5119,279.6039,8.2389e-05,1.024e-05,0.0,0 STARLINK-4612,1 53750U 22107BC  24010.86124180  .00001024  00000-0  82389-4 0  9990,2 53750  53.2158 205.5578 0001465  80.5119 279.6039 15.08844859 75514,6917.866,95.437,540.744,538.717,0.0
53750.0,STARLINK-4612,PAYLOAD,2024-01-11 18:55:34,15.08846473,0.000131,53.2148,201.3934,89.8886,270.2256,8.6798e-05,1.094e-05,0.0,0 STARLINK-4612,1 53750U 22107BC  24011.78859766  .00001094  00000-0  86798-4 0  9992,2 53750  53.2148 201.3934 0001310  89.8886 270.2256 15.08846473 74864,6917.861,95.437,540.632,538.819,0.0
53750.0,STARLINK-4612,PAYLOAD,2024-01-12 18:46:22,15.08838749,0.0001236,53.2149,196.9321,97.5677,262.5455,-4.6033e-06,-3.61e-06,0.0,0 STARLINK-4612,1 53750U 22107BC  24012.78220415 -.00000361  00000-0 -46033-5 0  9993,2 53750  53.2149 196.9321 0001236  97.5677 262.5455 15.08838749 75015,6917.884,95.438,540.604,538.894,0.0
53750.0,STARLINK-4612,PAYLOAD,2024-01-12 21:57:08,15.0883848,0.0001234,53.2148,196.3374,98.2589,261.8543,-9.1588e-06,-4.34e-06,0.0,0 STARLINK-4612,1 53750U 22107BC  24012.91468416 -.00000434  00000-0 -91588-5 0  9999,2 53750  53.2148 196.3374 0001234  98.2589 261.8543 15.08838480 75825,6917.885,95.438,540.604,538.896,0.0
53750.0,STARLINK-4612,PAYLOAD,2024-01-13 12:15:36,15.08836519,0.0001221,53.2144,193.6609,108.8032,251.3093,2.6235e-05,1.3e-06,0.0,0 STARLINK-4612,1 53750U 22107BC  24013.51084438  .00000130  00000-0  26235-4 0  9991,2 53750  53.2144 193.6609 0001221 108.8032 251.3093 15.08836519 75914,6917.891,95.438,540.601,538.911,0.0
53750.0,STARLINK-4612,PAYLOAD,2024-01-14 12:06:23,15.08836936,0.0001258,53.2155,189.1997,89.1164,270.9972,9.8835e-05,1.285e-05,0.0,0 STARLINK-4612,1 53750U 22107BC  24014.50444444  .00001285  00000-0  98835-4 0  9995,2 53750  53.2155 189.1997 0001258  89.1164 270.9972 15.08836936 75278,6917.89,95.438,540.625,538.884,0.0
53750.0,STARLINK-4612,PAYLOAD,2024-01-14 16:52:33,15.08840416,0.0001248,53.2155,188.3077,89.6674,270.4461,0.00012586,1.716e-05,0.0,0 STARLINK-4612,1 53750U 22107BC  24014.70316234  .00001716  00000-0  12586-3 0  9999,2 53750  53.2155 188.3077 0001248  89.6674 270.4461 15.08840416 76095,6917.879,95.438,540.607,538.881,0.0
53750.0,STARLINK-4612,PAYLOAD,2024-01-15 13:32:34,15.08837738,0.0001254,53.2153,184.4422,84.0857,276.0278,4.018e-05,3.52e-06,0.0,0 STARLINK-4612,1 53750U 22107BC  24015.56428804  .00000352  00000-0  40180-4 0  9998,2 53750  53.2153 184.4422 0001254  84.0857 276.0278 15.08837738 76229,6917.887,95.438,540.62,538.885,0.0
53750.0,STARLINK-4612,PAYLOAD,2024-01-15 16:43:20,15.08838008,0.0001241,53.2154,183.8474,83.8058,276.3076,3.681e-05,2.98e-06,0.0,0 STARLINK-4612,1 53750U 22107BC  24015.69676792  .00000298  00000-0  36810-4 0  9997,2 53750  53.2154 183.8474 0001241  83.8058 276.3076 15.08838008 75450,6917.886,95.438,540.61,538.893,0.0
53750.0,STARLINK-4612,PAYLOAD,2024-01-16 14:58:44,15.08841195,0.0001199,53.2153,179.6852,81.3268,278.786,2.813e-05,1.6e-06,0.0,0 STARLINK-4612,1 53750U 22107BC  24016.62412732  .00000160  00000-0  28130-4 0  9997,2 53750  53.2153 179.6852 0001199  81.3268 278.7860 15.08841195 76381,6917.877,95.437,540.571,538.912,0.0
53750.0,STARLINK-4612,PAYLOAD,2024-01-16 19:44:53,15.08846244,0.000121,53.2153,178.7928,86.1829,273.9301,6.7613e-05,7.89e-06,0.0,0 STARLINK-4612,1 53750U 22107BC  24016.82284236  .00000789  00000-0  67613-4 0  9991,2 53750  53.2153 178.7928 0001210  86.1829 273.9301 15.08846244 75628,6917.861,95.437,540.563,538.889,0.0
53750.0,STARLINK-4612,PAYLOAD,2024-01-17 14:49:32,15.08828493,0.00014,53.2157,175.2249,68.7305,291.3836,1.0463e-05,-1.21e-06,0.0,0 STARLINK-4612,1 53750U 22107BC  24017.61773916 -.00000121  00000-0  10463-4 0  9999,2 53750  53.2157 175.2249 0001400  68.7305 291.3836 15.08828493 76530,6917.916,95.438,540.749,538.812,0.0
53750.0,STARLINK-4612,PAYLOAD,2024-01-17 18:00:18,15.0883443,0.0001389,53.2154,174.6296,77.825,282.2898,5.9961e-05,6.66e-06,0.0,0 STARLINK-4612,1 53750U 22107BC  24017.75021493  .00000666  00000-0  59961-4 0  9999,2 53750  53.2154 174.6296 0001389  77.8250 282.2898 15.08834430 75767,6917.897,95.438,540.723,538.802,0.0
53750.0,STARLINK-4612,PAYLOAD,2024-01-18 14:40:18,15.08847564,0.0001343,53.2154,170.7644,77.9701,282.1442,9.8277e-05,1.277e-05,0.0,0 STARLINK-4612,1 53750U 22107BC  24018.61132803  .00001277  00000-0  98277-4 0  9995,2 53750  53.2154 170.7644 0001343  77.9701 282.1442 15.08847564 76681,6917.857,95.437,540.651,538.793,0.0
53750.0,STARLINK-4612,PAYLOAD,2024-01-18 17:51:05,15.08849447,0.00014,53.2147,170.1692,78.9068,281.2081,0.0002027,2.94e-05,0.0,0 STARLINK-4612,1 53750U 22107BC  24018.74380796  .00002940  00000-0  20270-3 0  9990,2 53750  53.2147 170.1692 0001400  78.9068 281.2081 15.08849447 75917,6917.852,95.437,540.685,538.748,0.0
53750.0,STARLINK-4612,PAYLOAD,2024-01-19 14:31:05,15.08828428,0.0001479,53.2143,166.3045,66.9209,293.1939,-0.00014176,-2.543e-05,0.0,0 STARLINK-4612,1 53750U 22107BC  24019.60492982 -.00002543  00000-0 -14176-3 0  9996,2 53750  53.2143 166.3045 0001479  66.9209 293.1939 15.08828428 76834,6917.916,95.438,540.804,538.758,0.0
53750.0,STARLINK-4612,PAYLOAD,2024-01-19 16:06:28,15.08828804,0.0001635,53.2139,166.0072,68.4939,291.6227,-0.0003078,-5.182e-05,0.0,0 STARLINK-4612,1 53750U 22107BC  24019.67116622 -.00005182  00000-0 -30780-3 0  9998,2 53750  53.2139 166.0072 0001635  68.4939 291.6227 15.08828804 76052,6917.915,95.438,540.911,538.649,0.0
53750.0,STARLINK-4612,PAYLOAD,2024-01-20 14:21:53,15.08830659,0.0001693,53.2149,161.8425,72.3672,287.7505,-0.0001705,-3e-05,0.0,0 STARLINK-4612,1 53750U 22107BC  24020.59853094 -.00003000  00000-0 -17050-3 0  9994,2 53750  53.2149 161.8425 0001693  72.3672 287.7505 15.08830659 76988,6917.909,95.438,540.945,538.603,0.0
53750.0,STARLINK-4612,PAYLOAD,2024-01-20 19:08:02,15.0883389,0.0001687,53.215,160.9492,67.9671,292.15,-1.51e-05,-5.28e-06,0.0,0 STARLINK-4612,1 53750U 22107BC  24020.79725177 -.00000528  00000-0 -15100-4 0  9993,2 53750  53.2150 160.9492 0001687  67.9671 292.1500 15.08833890 76228,6917.899,95.438,540.931,538.597,0.0
53750.0,STARLINK-4612,PAYLOAD,2024-01-21 14:12:40,15.08847038,0.0001759,53.2155,157.3815,76.7816,283.3372,0.00066876,0.00010373,0.0,0 STARLINK-4612,1 53750U 22107BC  24021.59213524  .00010373  00000-0  66876-3 0  9992,2 53750  53.2155 157.3815 0001759  76.7816 283.3372 15.08847038 76342,6917.859,95.437,540.941,538.507,0.0
53750.0,STARLINK-4612,PAYLOAD,2024-01-22 09:17:19,15.08830769,0.0001671,53.2155,153.813,79.6908,280.4272,0.00010852,1.439e-05,0.0,0 STARLINK-4612,1 53750U 22107BC  24022.38702564  .00001439  00000-0  10852-3 0  9993,2 53750  53.2155 153.8130 0001671  79.6908 280.4272 15.08830769 76463,6917.909,95.438,540.93,538.618,0.0
53750.0,STARLINK-4612,PAYLOAD,2024-01-22 15:38:51,15.08826623,0.0001696,53.2154,152.6238,79.2576,280.8607,8.5663e-05,1.075e-05,0.0,0 STARLINK-4612,1 53750U 22107BC  24022.65198942  .00001075  00000-0  85663-4 0  9991,2 53750  53.2154 152.6238 0001696  79.2576 280.8607 15.08826623 77294,6917.921,95.438,540.96,538.613,0.0
53750.0,STARLINK-4612,PAYLOAD,2024-01-23 12:18:52,15.08861619,0.0001645,53.2155,148.7581,80.1799,279.9379,0.00098015,0.00015355,0.0,0 STARLINK-4612,1 53750U 22107BC  24023.51310230  .00015355  00000-0  98015-3 0  9993,2 53750  53.2155 148.7581 0001645  80.1799 279.9379 15.08861619 76630,6917.814,95.436,540.817,538.541,0.0
53750.0,STARLINK-4612,PAYLOAD,2024-01-23 13:54:15,15.08872136,0.0001666,53.2153,148.4606,82.1264,277.9918,0.0013303,0.00020966,0.0,0 STARLINK-4612,1 53750U 22107BC  24023.57934046  .00020966  00000-0  13303-2 0  9996,2 53750  53.2153 148.4606 0001666  82.1264 277.9918 15.08872136 77437,6917.782,95.436,540.8,538.495,0.0
53750.0,STARLINK-4612,PAYLOAD,2024-01-24 12:09:38,15.08868235,0.0001785,53.2153,144.2981,87.1612,272.9584,0.0010605,0.00016643,0.0,0 STARLINK-4612,1 53750U 22107BC  24024.50669803  .00016643  00000-0  10605-2 0  9995,2 53750  53.2153 144.2981 0001785  87.1612 272.9584 15.08868235 76787,6917.794,95.436,540.894,538.424,0.0
53750.0,STARLINK-4612,PAYLOAD,2024-01-24 13:45:01,15.08859128,0.0001697,53.2152,144.001,114.5653,245.5517,0.0015103,0.00023843,0.0,0 STARLINK-4612,1 53750U 22107BC  24024.57293764  .00023843  00000-0  15103-2 0  9999,2 53750  53.2152 144.0010 0001697 114.5653 245.5517 15.08859128 77581,6917.822,95.436,540.861,538.513,0.0
53750.0,STARLINK-4612,PAYLOAD,2024-01-24 15:20:25,15.08839885,0.0001816,53.2153,143.704,74.4879,285.6314,0.0017059,0.00026966,0.0,0 STARLINK-4612,1 53750U 22107BC  24024.63918109  .00026966  00000-0  17059-2 0  9994,2 53750  53.2153 143.7040 0001816  74.4879 285.6314 15.08839885 76800,6917.881,95.438,541.002,538.489,0.0
53750.0,STARLINK-4612,PAYLOAD,2024-01-25 12:00:26,15.08840532,0.0002053,53.2155,139.8379,65.215,294.9055,0.00042488,6.48e-05,0.0,0 STARLINK-4612,1 53750U 22107BC  24025.50030479  .00006480  00000-0  42488-3 0  9990,2 53750  53.2155 139.8379 0002053  65.2150 294.9055 15.08840532 76937,6917.879,95.438,541.164,538.324,0.0
53750.0,STARLINK-4612,PAYLOAD,2024-01-25 13:35:49,15.08840297,0.0001811,53.2152,139.5407,75.1073,285.0119,0.00022292,3.262e-05,0.0,0 STARLINK-4612,1 53750U 22107BC  24025.56654360  .00003262  00000-0  22292-3 0  9993,2 53750  53.2152 139.5407 0001811  75.1073 285.0119 15.08840297 77737,6917.879,95.438,540.997,538.492,0.0
